start=new Date('2022-12-25T00:00:00.000Z').valueOf();
sats=[{"REV_AT_EPOCH":"5359","INCLINATION":"53.2172","EPOCH":"2022-12-24T12:11:59.196192","PERIAPSIS":"537.865","BSTAR":"0.00004993600000","DECAY_DATE":null,"COUNTRY_CODE":"US","FILE":"3721442","MEAN_MOTION_DOT":"0.00000506","RCS_SIZE":"LARGE","APOAPSIS":"541.637","MEAN_ANOMALY":"335.2862","SEMIMAJOR_AXIS":"6917.886","CENTER_NAME":"EARTH","RA_OF_ASC_NODE":"26.7737","MEAN_MOTION_DDOT":"0.0000000000000","TIME_SYSTEM":"UTC","NORAD_CAT_ID":"50829","LAUNCH_DATE":"2022-01-06","MEAN_ELEMENT_THEORY":"SGP4","PERIOD":"95.438","TLE_LINE1":"1 50829U 22001AC  22358.50832403  .00000506  00000-0  49936-4 0  9990","MEAN_MOTION":"15.08838231","GP_ID":"221381590","ELEMENT_SET_NO":"999","SITE":"AFETR","EPHEMERIS_TYPE":"0","OBJECT_ID":"2022-001AC","TLE_LINE2":"2 50829  53.2172  26.7737 0002726  24.8261 335.2862 15.08838231 53598","OBJECT_NAME":"STARLINK-3294","ARG_OF_PERICENTER":"24.8261","REF_FRAME":"TEME","CLASSIFICATION_TYPE":"U","OBJECT_TYPE":"PAYLOAD","ECCENTRICITY":"0.00027260"},{"NORAD_CAT_ID":"50830","LAUNCH_DATE":"2022-01-06","PERIOD":"95.438","MEAN_ELEMENT_THEORY":"SGP4","TLE_LINE1":"1 50830U 22001AD  22358.59205083  .00004228  00000-0  28363-3 0  9994","MEAN_MOTION":"15.08836020","GP_ID":"221380338","OBJECT_ID":"2022-001AD","EPHEMERIS_TYPE":"0","ELEMENT_SET_NO":"999","SITE":"AFETR","CLASSIFICATION_TYPE":"U","REF_FRAME":"TEME","ARG_OF_PERICENTER":"31.6781","TLE_LINE2":"2 50830  53.2174  36.3859 0002413  31.6781 328.4356 15.08836020 53473","OBJECT_NAME":"STARLINK-3278","ECCENTRICITY":"0.00024130","OBJECT_TYPE":"PAYLOAD","REV_AT_EPOCH":"5347","EPOCH":"2022-12-24T14:12:33.191712","INCLINATION":"53.2174","BSTAR":"0.00028363000000","DECAY_DATE":null,"PERIAPSIS":"538.088","MEAN_MOTION_DOT":"0.00004228","FILE":"3721442","COUNTRY_CODE":"US","MEAN_ANOMALY":"328.4356","SEMIMAJOR_AXIS":"6917.893","CENTER_NAME":"EARTH","RCS_SIZE":"LARGE","APOAPSIS":"541.427","TIME_SYSTEM":"UTC","MEAN_MOTION_DDOT":"0.0000000000000","RA_OF_ASC_NODE":"36.3859"},{"EPHEMERIS_TYPE":"0","OBJECT_ID":"2022-001AE","SITE":"AFETR","ELEMENT_SET_NO":"999","GP_ID":"221380588","ECCENTRICITY":"0.00029360","OBJECT_TYPE":"PAYLOAD","CLASSIFICATION_TYPE":"U","REF_FRAME":"TEME","ARG_OF_PERICENTER":"23.7501","TLE_LINE2":"2 50831  53.2174  26.3695 0002936  23.7501 336.3626 15.08832098 53618","OBJECT_NAME":"STARLINK-3299","PERIOD":"95.438","MEAN_ELEMENT_THEORY":"SGP4","NORAD_CAT_ID":"50831","LAUNCH_DATE":"2022-01-06","MEAN_MOTION":"15.08832098","TLE_LINE1":"1 50831U 22001AE  22358.59760593  .00001234  00000-0  95660-4 0  9996","TIME_SYSTEM":"UTC","MEAN_MOTION_DDOT":"0.0000000000000","RA_OF_ASC_NODE":"26.3695","SEMIMAJOR_AXIS":"6917.905","CENTER_NAME":"EARTH","MEAN_ANOMALY":"336.3626","APOAPSIS":"541.801","RCS_SIZE":"LARGE","EPOCH":"2022-12-24T14:20:33.152352","INCLINATION":"53.2174","REV_AT_EPOCH":"5361","MEAN_MOTION_DOT":"0.00001234","FILE":"3721442","COUNTRY_CODE":"US","BSTAR":"0.00009566000000","DECAY_DATE":null,"PERIAPSIS":"537.738"},{"MEAN_MOTION":"15.08846477","TLE_LINE1":"1 50832U 22001AF  22358.52212073 -.00000209  00000-0  49717-5 0  9990","MEAN_ELEMENT_THEORY":"SGP4","PERIOD":"95.437","LAUNCH_DATE":"2022-01-06","NORAD_CAT_ID":"50832","OBJECT_TYPE":"PAYLOAD","ECCENTRICITY":"0.00023090","REF_FRAME":"TEME","ARG_OF_PERICENTER":"23.9626","TLE_LINE2":"2 50832  53.2196  36.7095 0002309  23.9626 336.1473 15.08846477 53463","OBJECT_NAME":"STARLINK-3328","CLASSIFICATION_TYPE":"U","SITE":"AFETR","ELEMENT_SET_NO":"999","EPHEMERIS_TYPE":"0","OBJECT_ID":"2022-001AF","GP_ID":"221381340","FILE":"3721442","COUNTRY_CODE":"US","MEAN_MOTION_DOT":"-0.00000209","DECAY_DATE":null,"BSTAR":"0.00000497170000","PERIAPSIS":"538.128","EPOCH":"2022-12-24T12:31:51.231072","INCLINATION":"53.2196","REV_AT_EPOCH":"5346","RA_OF_ASC_NODE":"36.7095","TIME_SYSTEM":"UTC","MEAN_MOTION_DDOT":"0.0000000000000","APOAPSIS":"541.323","RCS_SIZE":"LARGE","SEMIMAJOR_AXIS":"6917.861","MEAN_ANOMALY":"336.1473","CENTER_NAME":"EARTH"},{"GP_ID":"221381091","SITE":"AFETR","ELEMENT_SET_NO":"999","EPHEMERIS_TYPE":"0","OBJECT_ID":"2022-001AG","TLE_LINE2":"2 50833  53.2195  25.4482 0001703  61.7052 298.4112 15.08829411 53647","OBJECT_NAME":"STARLINK-3316","ARG_OF_PERICENTER":"61.7052","REF_FRAME":"TEME","CLASSIFICATION_TYPE":"U","OBJECT_TYPE":"PAYLOAD","ECCENTRICITY":"0.00017030","NORAD_CAT_ID":"50833","LAUNCH_DATE":"2022-01-06","MEAN_ELEMENT_THEORY":"SGP4","PERIOD":"95.438","TLE_LINE1":"1 50833U 22001AG  22358.80273447  .00001355  00000-0  10326-3 0  9998","MEAN_MOTION":"15.08829411","RCS_SIZE":"LARGE","APOAPSIS":"540.956","CENTER_NAME":"EARTH","SEMIMAJOR_AXIS":"6917.913","MEAN_ANOMALY":"298.4112","RA_OF_ASC_NODE":"25.4482","MEAN_MOTION_DDOT":"0.0000000000000","TIME_SYSTEM":"UTC","REV_AT_EPOCH":"5364","INCLINATION":"53.2195","EPOCH":"2022-12-24T19:15:56.258208","PERIAPSIS":"538.600","BSTAR":"0.00010326000000","DECAY_DATE":null,"COUNTRY_CODE":"US","FILE":"3721442","MEAN_MOTION_DOT":"0.00001355"},{"MEAN_MOTION":"15.08847969","TLE_LINE1":"1 50834U 22001AH  22358.84228884 -.00002828  00000-0 -15957-3 0  9991","PERIOD":"95.437","MEAN_ELEMENT_THEORY":"SGP4","LAUNCH_DATE":"2022-01-06","NORAD_CAT_ID":"50834","ECCENTRICITY":"0.00026030","OBJECT_TYPE":"PAYLOAD","CLASSIFICATION_TYPE":"U","ARG_OF_PERICENTER":"26.3275","REF_FRAME":"TEME","OBJECT_NAME":"STARLINK-3331","TLE_LINE2":"2 50834  53.2179  35.2626 0002603  26.3275 333.7849 15.08847969 53506","EPHEMERIS_TYPE":"0","OBJECT_ID":"2022-001AH","ELEMENT_SET_NO":"999","SITE":"AFETR","GP_ID":"221379840","MEAN_MOTION_DOT":"-0.00002828","FILE":"3721442","COUNTRY_CODE":"US","BSTAR":"-0.00015957000000","DECAY_DATE":null,"PERIAPSIS":"537.920","EPOCH":"2022-12-24T20:12:53.755776","INCLINATION":"53.2179","REV_AT_EPOCH":"5350","TIME_SYSTEM":"UTC","MEAN_MOTION_DDOT":"0.0000000000000","RA_OF_ASC_NODE":"35.2626","SEMIMAJOR_AXIS":"6917.856","CENTER_NAME":"EARTH","MEAN_ANOMALY":"333.7849","APOAPSIS":"541.522","RCS_SIZE":"LARGE"},{"LAUNCH_DATE":"2022-01-06","NORAD_CAT_ID":"50835","PERIOD":"95.438","MEAN_ELEMENT_THEORY":"SGP4","TLE_LINE1":"1 50835U 22001AJ  22358.83493373  .00000758  00000-0  65710-4 0  9999","MEAN_MOTION":"15.08834232","GP_ID":"221380090","EPHEMERIS_TYPE":"0","OBJECT_ID":"2022-001AJ","SITE":"AFETR","ELEMENT_SET_NO":"999","CLASSIFICATION_TYPE":"U","ARG_OF_PERICENTER":"41.8577","REF_FRAME":"TEME","TLE_LINE2":"2 50835  53.2186  35.2938 0001833  41.8577 318.2555 15.08834232 53503","OBJECT_NAME":"STARLINK-3310","ECCENTRICITY":"0.00018330","OBJECT_TYPE":"PAYLOAD","REV_AT_EPOCH":"5350","EPOCH":"2022-12-24T20:02:18.274272","INCLINATION":"53.2186","DECAY_DATE":null,"BSTAR":"0.00006571000000","PERIAPSIS":"538.495","MEAN_MOTION_DOT":"0.00000758","FILE":"3721442","COUNTRY_CODE":"US","SEMIMAJOR_AXIS":"6917.898","MEAN_ANOMALY":"318.2555","CENTER_NAME":"EARTH","APOAPSIS":"541.031","RCS_SIZE":"LARGE","TIME_SYSTEM":"UTC","MEAN_MOTION_DDOT":"0.0000000000000","RA_OF_ASC_NODE":"35.2938"},{"GP_ID":"221380841","EPHEMERIS_TYPE":"0","OBJECT_ID":"2022-001AK","ELEMENT_SET_NO":"999","SITE":"AFETR","CLASSIFICATION_TYPE":"U","REF_FRAME":"TEME","ARG_OF_PERICENTER":"30.4702","TLE_LINE2":"2 50836  53.2175  35.2588 0002645  30.4702 329.6443 15.08837051 53402","OBJECT_NAME":"STARLINK-3330","ECCENTRICITY":"0.00026450","OBJECT_TYPE":"PAYLOAD","NORAD_CAT_ID":"50836","LAUNCH_DATE":"2022-01-06","PERIOD":"95.438","MEAN_ELEMENT_THEORY":"SGP4","TLE_LINE1":"1 50836U 22001AK  22358.84596796  .00001257  00000-0  97059-4 0  9990","MEAN_MOTION":"15.08837051","MEAN_ANOMALY":"329.6443","SEMIMAJOR_AXIS":"6917.889","CENTER_NAME":"EARTH","APOAPSIS":"541.584","RCS_SIZE":"LARGE","TIME_SYSTEM":"UTC","MEAN_MOTION_DDOT":"0.0000000000000","RA_OF_ASC_NODE":"35.2588","REV_AT_EPOCH":"5340","EPOCH":"2022-12-24T20:18:11.631744","INCLINATION":"53.2175","DECAY_DATE":null,"BSTAR":"0.00009705900000","PERIAPSIS":"537.925","MEAN_MOTION_DOT":"0.00001257","FILE":"3721442","COUNTRY_CODE":"US"},{"TLE_LINE1":"1 50837U 22001AL  22358.80641629  .00005446  00000-0  36002-3 0  9997","MEAN_MOTION":"15.08842080","LAUNCH_DATE":"2022-01-06","NORAD_CAT_ID":"50837","PERIOD":"95.437","MEAN_ELEMENT_THEORY":"SGP4","CLASSIFICATION_TYPE":"U","REF_FRAME":"TEME","ARG_OF_PERICENTER":"29.6756","OBJECT_NAME":"STARLINK-3318","TLE_LINE2":"2 50837  53.2140  25.4378 0002897  29.6756 330.4400 15.08842080 53648","ECCENTRICITY":"0.00028970","OBJECT_TYPE":"PAYLOAD","GP_ID":"221381591","OBJECT_ID":"2022-001AL","EPHEMERIS_TYPE":"0","ELEMENT_SET_NO":"999","SITE":"AFETR","BSTAR":"0.00036002000000","DECAY_DATE":null,"PERIAPSIS":"537.735","MEAN_MOTION_DOT":"0.00005446","FILE":"3721442","COUNTRY_CODE":"US","REV_AT_EPOCH":"5364","EPOCH":"2022-12-24T19:21:14.367456","INCLINATION":"53.2140","SEMIMAJOR_AXIS":"6917.874","CENTER_NAME":"EARTH","MEAN_ANOMALY":"330.4400","APOAPSIS":"541.743","RCS_SIZE":"LARGE","TIME_SYSTEM":"UTC","MEAN_MOTION_DDOT":"0.0000000000000","RA_OF_ASC_NODE":"25.4378"},{"APOAPSIS":"541.025","RCS_SIZE":"LARGE","SEMIMAJOR_AXIS":"6917.163","MEAN_ANOMALY":"321.8666","CENTER_NAME":"EARTH","RA_OF_ASC_NODE":"35.3951","MEAN_MOTION_DDOT":"0.0000000000000","TIME_SYSTEM":"UTC","REV_AT_EPOCH":"5350","INCLINATION":"53.2161","EPOCH":"2022-12-24T19:29:47.300064","PERIAPSIS":"537.030","BSTAR":"0.00107410000000","DECAY_DATE":null,"COUNTRY_CODE":"US","FILE":"3721442","MEAN_MOTION_DOT":"0.00016958","GP_ID":"221380339","SITE":"AFETR","ELEMENT_SET_NO":"999","EPHEMERIS_TYPE":"0","OBJECT_ID":"2022-001AM","TLE_LINE2":"2 50838  53.2161  35.3951 0002888  38.2531 321.8666 15.09074808 53505","OBJECT_NAME":"STARLINK-3322","ARG_OF_PERICENTER":"38.2531","REF_FRAME":"TEME","CLASSIFICATION_TYPE":"U","OBJECT_TYPE":"PAYLOAD","ECCENTRICITY":"0.00028880","LAUNCH_DATE":"2022-01-06","NORAD_CAT_ID":"50838","MEAN_ELEMENT_THEORY":"SGP4","PERIOD":"95.423","TLE_LINE1":"1 50838U 22001AM  22358.81235301  .00016958  00000-0  10741-2 0  9996","MEAN_MOTION":"15.09074808"}];
